TEVEL2-9                
1 63237U 25052AD  26202.24254238  .00012991  00000+0  41133-3 0  9993
2 63237  97.3890  97.5180 0007083  39.6084 320.5675 15.32853308 75241
TEVEL2-7                
1 63238U 25052AE  26202.15968763  .00012126  00000+0  38803-3 0  9999
2 63238  97.3894  97.3362 0007217  40.1547 320.0227 15.32531062 75222
TEVEL2-8                
1 63239U 25052AF  26202.49473660  .00014980  00000+0  47863-3 0  9990
2 63239  97.3893  97.6468 0007229  39.9501 320.2272 15.32528866 75276
INNOSAT 16 (RS92S7)     
1 64878U 25155C   26202.63289126  .00005398  00000+0  21377-3 0  9997
2 64878  97.4588 169.6638 0012284  69.1525 291.1027 15.25785797 85922
GEOSCAN 6 (RS92S6)      
1 64879U 25155D   26202.63776488  .00009766  00000+0  33080-3 0  9997
2 64879  97.4578 171.3427 0009640  64.0700 296.1533 15.30739059 86035
GEOSCAN 1 (RS92S1)      
1 64880U 25155E   26202.62608176  .00010564  00000+0  35042-3 0  9994
2 64880  97.4574 171.5103 0009595  64.2870 295.9360 15.31393273 86046
239ALFEROV (RS61S)      
1 64881U 25155F   26202.60936475  .00014735  00000+0  45238-3 0  9991
2 64881  97.4574 172.1760 0009291  64.5675 295.6528 15.33792017 86080
GEOSCAN 2 (RS92S2)      
1 64890U 25155Q   26202.61387432  .00010800  00000+0  35544-3 0  9993
2 64890  97.4574 171.6638 0008636  54.6721 305.5327 15.31650552 86052
GEOSCAN 5 (RS92S5)      
1 64891U 25155R   26202.59141403  .00014871  00000+0  45232-3 0  9994
2 64891  97.4566 172.3082 0008352  69.9528 290.2613 15.34094953 86096
GEOSCAN 4 (RS92S4)      
1 64892U 25155S   26202.63719121  .00014296  00000+0  43260-3 0  9998
2 64892  97.4571 172.4133 0008247  69.8861 290.3269 15.34267101 86100
GEOSCAN 3 (RS92S3)      
1 64893U 25155T   26202.59102321  .00018496  00000+0  52108-3 0  9999
2 64893  97.4558 172.9010 0008271  70.9672 289.2467 15.36460706 86133
INNOSAT 3 (RS92S0)      
1 64894U 25155U   26202.63784141  .00041232  00000+0  83810-3 0  9999
2 64894  97.4502 175.0247 0007837  76.1553 284.0568 15.46168328 86289
KNACKSAT-2              
1 67683U 98067XZ  26202.01445164  .00044153  00000+0  48284-3 0  9992
2 67683  51.6271 123.9445 0007840 347.8251  12.2553 15.62823140 25569
